ONEWEB-0128             
1 47274U 20100S   25201.32304602 -.00000327  00000+0 -94473-3 0  9990
2 47274  87.8858  56.6900 0002004  80.3032 279.8323 13.12441878221219
ONEWEB-0129             
1 47275U 20100T   25201.30196716 -.00000069  00000+0 -22588-3 0  9995
2 47275  87.8856  56.6370 0001771  43.7943 316.3326 13.12441322221149
ONEWEB-0130             
1 47276U 20100U   25201.55826383 -.00000293  00000+0 -85029-3 0  9991
2 47276  87.8854  56.5864 0001838  80.5921 279.5415 13.12444337221142
ONEWEB-0131             
1 47277U 20100V   25201.55500932 -.00000501  00000+0 -14281-2 0  9994
2 47277  87.8855  56.6135 0001874  83.4762 276.6580 13.12443229221185
ONEWEB-0132             
1 47278U 20100W   25201.50797943  .00000449  00000+0  12119-2 0  9997
2 47278  87.8862  56.6244 0001804  89.5448 270.5887 13.12442197221070
ONEWEB-0133             
1 47279U 20100X   25201.52405853  .00000155  00000+0  39527-3 0  9993
2 47279  87.8849  56.5974 0001918  83.4832 276.6515 13.12441189221234
ONEWEB-0134             
1 47280U 20100Y   25201.49336581 -.00000024  00000+0 -10177-3 0  9999
2 47280  87.8853  56.5866 0001965  77.5423 282.5926 13.12444263221208
ONEWEB-0135             
1 47281U 20100Z   25201.31169515 -.00000282  00000+0 -82044-3 0  9990
2 47281  87.8852  56.6616 0002167  77.4220 282.7151 13.12441375221204
